{
  "type": "FeatureCollection",
  "features": [
    {
      "type": "Feature",
      "properties": {
        "norad_id": 64902,
        "name": "CO3D 2",
        "group": "resource",
        "lat": 52.00567338120023,
        "lon": -115.58172971571074,
        "alt_km": 499.83006548832054,
        "timestamp": "2025-12-04T09:47:37.180770+00:00",
        "meta_object_name": "CO3D 2",
        "meta_object_id": "2025-156D",
        "meta_epoch": "2025-12-03T22:10:38.570592",
        "meta_mean_motion": 15.20186535,
        "meta_eccentricity": 9.476e-05,
        "meta_inclination": 97.435,
        "meta_ra_of_asc_node": 54.3172,
        "meta_arg_of_pericenter": 107.1395,
        "meta_mean_anomaly": 252.9944,
        "meta_ephemeris_type": 0,
        "meta_classification_type": "U",
        "meta_norad_cat_id": 64902,
        "meta_element_set_no": 999,
        "meta_rev_at_epoch": 1986,
        "meta_bstar": 0.00082266601,
        "meta_mean_motion_dot": 0.00017776,
        "meta_mean_motion_ddot": 0,
        "tle_line1": "1 64902U 25156D   25337.92405753  .00017776  00000+0  82267-3 0  9990",
        "tle_line2": "2 64902  97.4350  54.3172 0000947 107.1395 252.9944 15.20186535 19864"
      },
      "geometry": {
        "type": "Point",
        "coordinates": [
          -115.58172971571074,
          52.00567338120023
        ]
      }
    },
    {
      "type": "Feature",
      "properties": {
        "norad_id": 64903,
        "name": "CO3D 1",
        "group": "resource",
        "lat": 52.79773371120759,
        "lon": -115.2993604811737,
        "alt_km": 499.5677424089017,
        "timestamp": "2025-12-04T09:47:37.180780+00:00",
        "meta_object_name": "CO3D 1",
        "meta_object_id": "2025-156E",
        "meta_epoch": "2025-12-03T22:10:51.974688",
        "meta_mean_motion": 15.20211436,
        "meta_eccentricity": 0.00010358,
        "meta_inclination": 97.4353,
        "meta_ra_of_asc_node": 54.3173,
        "meta_arg_of_pericenter": 115.7512,
        "meta_mean_anomaly": 244.383,
        "meta_ephemeris_type": 0,
        "meta_classification_type": "U",
        "meta_norad_cat_id": 64903,
        "meta_element_set_no": 999,
        "meta_rev_at_epoch": 1986,
        "meta_bstar": 0.00066619195,
        "meta_mean_motion_dot": 0.00014386,
        "meta_mean_motion_ddot": 0,
        "tle_line1": "1 64903U 25156E   25337.92421267  .00014386  00000+0  66619-3 0  9996",
        "tle_line2": "2 64903  97.4353  54.3173 0001035 115.7512 244.3830 15.20211436 19862"
      },
      "geometry": {
        "type": "Point",
        "coordinates": [
          -115.2993604811737,
          52.79773371120759
        ]
      }
    },
    {
      "type": "Feature",
      "properties": {
        "norad_id": 66514,
        "name": "SENTINEL-6B",
        "group": "resource",
        "lat": 45.09215725679281,
        "lon": -26.678760398112818,
        "alt_km": 1319.8371959733295,
        "timestamp": "2025-12-04T09:47:37.180790+00:00",
        "meta_object_name": "SENTINEL-6B",
        "meta_object_id": "2025-264A",
        "meta_epoch": "2025-12-03T21:55:25.872096",
        "meta_mean_motion": 12.85877574,
        "meta_eccentricity": 0.0011544,
        "meta_inclination": 66.039,
        "meta_ra_of_asc_node": 180.8509,
        "meta_arg_of_pericenter": 268.5805,
        "meta_mean_anomaly": 91.389,
        "meta_ephemeris_type": 0,
        "meta_classification_type": "U",
        "meta_norad_cat_id": 66514,
        "meta_element_set_no": 999,
        "meta_rev_at_epoch": 215,
        "meta_bstar": 0.00031328,
        "meta_mean_motion_dot": 1.5e-07,
        "meta_mean_motion_ddot": 0,
        "tle_line1": "1 66514U 25264A   25337.91349389  .00000015  00000+0  31328-3 0  9992",
        "tle_line2": "2 66514  66.0390 180.8509 0011544 268.5805  91.3890 12.85877574  2150"
      },
      "geometry": {
        "type": "Point",
        "coordinates": [
          -26.678760398112818,
          45.09215725679281
        ]
      }
    }
  ]
}